H1 CPF  1  DLR 2022 05 08 10  6282 technosat            
H2  1704205 6203    42829 2022 05 08 00 00 00 2022 05 15 00 00 00    60 1 1  0 0 0
H9
10 0 59709  79200.000000  0      -4780877.274       2221898.930      -4586039.431
10 0 59709  79260.000000  0      -4992591.016       2432523.299      -4240046.043
10 0 59709  79320.000000  0      -5181623.716       2634730.090      -3876194.570
10 0 59709  79380.000000  0      -5347250.739       2827465.842      -3496008.021
10 0 59709  79440.000000  0      -5488853.356       3009709.745      -3101079.927
10 0 59709  79500.000000  0      -5605921.347       3180479.014      -2693067.864
10 0 59709  79560.000000  0      -5698055.086       3338834.131      -2273686.659
10 0 59709  79620.000000  0      -5764967.160       3483883.932      -1844701.289
10 0 59709  79680.000000  0      -5806483.464       3614790.519      -1407919.477
10 0 59709  79740.000000  0      -5822543.725       3730773.947       -965184.054
10 0 59709  79800.000000  0      -5813201.526       3831116.703       -518365.179
10 0 59709  79860.000000  0      -5778623.842       3915167.925        -69352.328
10 0 59709  79920.000000  0      -5719090.002       3982347.342        379953.890
10 0 59709  79980.000000  0      -5634990.008       4032148.812        827650.034
10 0 59709  80040.000000  0      -5526822.341       4064143.522       1271838.018
10 0 59709  80100.000000  0      -5395191.296       4077982.881       1710633.403
10 0 59709  80160.000000  0      -5240803.693       4073400.925       2142173.583
10 0 59709  80220.000000  0      -5064465.275       4050216.424       2564625.790
10 0 59709  80280.000000  0      -4867076.589       4008334.608       2976195.159
10 0 59709  80340.000000  0      -4649628.354       3947748.357       3375132.547
10 0 59709  80400.000000  0      -4413196.439       3868538.996       3759742.110
10 0 59709  80460.000000  0      -4158936.454       3770876.618       4128388.635
10 0 59709  80520.000000  0      -3888078.056       3655019.988       4479504.533
10 0 59709  80580.000000  0      -3601918.929       3521316.086       4811596.616
10 0 59709  80640.000000  0      -3301818.374       3370199.159       5123252.509
10 0 59709  80700.000000  0      -2989190.732       3202189.314       5413146.626
10 0 59709  80760.000000  0      -2665498.593       3017890.726       5680045.808
10 0 59709  80820.000000  0      -2332245.824       2817989.428       5922814.518
10 0 59709  80880.000000  0      -1990970.478       2603250.724       6140419.627
10 0 59709  80940.000000  0      -1643237.518       2374516.156       6331934.758
10 0 59709  81000.000000  0      -1290631.527       2132700.115       6496544.005
10 0 59709  81060.000000  0       -934749.515       1878786.179       6633545.276
10 0 59709  81120.000000  0       -577193.699       1613823.074       6742353.287
10 0 59709  81180.000000  0       -219564.220       1338920.279       6822502.037
10 0 59709  81240.000000  0        136548.059       1055243.364       6873646.741
10 0 59709  81300.000000  0        489568.668        764009.040       6895565.304
10 0 59709  81360.000000  0        837946.513        466479.945       6888159.287
10 0 59709  81420.000000  0       1180160.719        163959.171       6851454.423
10 0 59709  81480.000000  0       1514727.322       -142215.433       6785600.635
10 0 59709  81540.000000  0       1840205.789       -450677.235       6690871.564
10 0 59709  81600.000000  0       2155205.279       -760036.966       6567663.510
10 0 59709  81660.000000  0       2458390.686      -1068888.960       6416493.960
10 0 59709  81720.000000  0       2748488.471      -1375817.582       6237999.627
10 0 59709  81780.000000  0       3024292.197      -1679403.822       6032933.943
10 0 59709  81840.000000  0       3284667.728      -1978231.961       5802164.004
10 0 59709  81900.000000  0       3528558.073      -2270896.239       5546667.039
10 0 59709  81960.000000  0       3754987.886      -2556007.562       5267526.441
10 0 59709  82020.000000  0       3963067.585      -2832200.249       4965927.312
10 0 59709  82080.000000  0       4151997.056      -3098138.749       4643151.522
10 0 59709  82140.000000  0       4321068.945      -3352524.266       4300572.312
10 0 59709  82200.000000  0       4469671.507      -3594101.286       3939648.457
10 0 59709  82260.000000  0       4597290.981      -3821663.943       3561918.024
10 0 59709  82320.000000  0       4703513.532      -4034062.223       3168991.731
10 0 59709  82380.000000  0       4788026.663      -4230207.905       2762545.892
10 0 59709  82440.000000  0       4850620.096      -4409080.226       2344315.048
10 0 59709  82500.000000  0       4891186.119      -4569731.255       1916084.344
10 0 59709  82560.000000  0       4909719.447      -4711290.947       1479681.646
10 0 59709  82620.000000  0       4906316.570      -4832971.836       1036969.457
10 0 59709  82680.000000  0       4881174.566      -4934073.357        589836.629
10 0 59709  82740.000000  0       4834589.373      -5013985.690        140189.975
10 0 59709  82800.000000  0       4766953.646      -5072193.158       -310054.152
10 0 59709  82860.000000  0       4678754.168      -5108277.205       -758978.388
10 0 59709  82920.000000  0       4570568.703      -5121918.838      -1204672.906
10 0 59709  82980.000000  0       4443062.389      -5112900.552      -1645243.807
10 0 59709  83040.000000  0       4296983.771      -5081107.784      -2078821.390
10 0 59709  83100.000000  0       4133160.460      -5026529.847      -2503568.311
10 0 59709  83160.000000  0       3952494.399      -4949260.302      -2917687.547
10 0 59709  83220.000000  0       3755956.789      -4849496.839      -3319430.044
10 0 59709  83280.000000  0       3544582.793      -4727540.689      -3707102.121
10 0 59709  83340.000000  0       3319465.981      -4583795.523      -4079072.598
10 0 59709  83400.000000  0       3081752.534      -4418765.849      -4433779.573
10 0 59709  83460.000000  0       2832635.254      -4233054.904      -4769736.815
10 0 59709  83520.000000  0       2573347.435      -4027362.108      -5085539.695
10 0 59709  83580.000000  0       2305156.675      -3802480.101      -5379870.696
10 0 59709  83640.000000  0       2029358.675      -3559291.446      -5651504.505
10 0 59709  83700.000000  0       1747270.971      -3298764.961      -5899312.780
10 0 59709  83760.000000  0       1460226.649      -3021951.664      -6122268.431
10 0 59709  83820.000000  0       1169568.065      -2729980.376      -6319449.530
10 0 59709  83880.000000  0        876640.609      -2424052.952      -6490042.724
10 0 59709  83940.000000  0        582786.562      -2105439.206      -6633346.176
10 0 59709  84000.000000  0        289339.084      -1775471.590      -6748772.036
10 0 59709  84060.000000  0         -2383.674      -1435539.618      -6835848.473
10 0 59709  84120.000000  0       -291084.274      -1087084.068      -6894221.266
10 0 59709  84180.000000  0       -575491.549       -731590.995      -6923654.987
10 0 59709  84240.000000  0       -854366.017       -370585.554      -6924033.766
10 0 59709  84300.000000  0      -1126505.126         -5625.632      -6895361.582
10 0 59709  84360.000000  0      -1390748.258        361704.643      -6837762.133
10 0 59709  84420.000000  0      -1645981.503        729801.552      -6751478.319
10 0 59709  84480.000000  0      -1891142.180       1097048.594      -6636871.277
10 0 59709  84540.000000  0      -2125223.086       1461823.343      -6494418.958
10 0 59709  84600.000000  0      -2347276.524       1822504.336      -6324714.360
10 0 59709  84660.000000  0      -2556418.102       2177478.094      -6128463.372
10 0 59709  84720.000000  0      -2751830.208       2525146.211      -5906482.106
10 0 59709  84780.000000  0      -2932765.166       2863932.410      -5659693.851
10 0 59709  84840.000000  0      -3098548.144       3192289.607      -5389125.629
10 0 59709  84900.000000  0      -3248579.751       3508706.946      -5095904.274
10 0 59709  84960.000000  0      -3382338.293       3811716.760      -4781252.085
10 0 59709  85020.000000  0      -3499381.643       4099901.413      -4446482.042
10 0 59709  85080.000000  0      -3599348.753       4371899.994      -4092992.624
10 0 59709  85140.000000  0      -3681960.762       4626414.804      -3722262.235
10 0 59709  85200.000000  0      -3747021.711       4862217.622      -3335843.334
10 0 59709  85260.000000  0      -3794418.961       5078155.778      -2935356.233
10 0 59709  85320.000000  0      -3824123.229       5273157.956      -2522482.502
10 0 59709  85380.000000  0      -3836188.222       5446239.699      -2098958.082
10 0 59709  85440.000000  0      -3830749.852       5596508.589      -1666566.092
10 0 59709  85500.000000  0      -3808025.079       5723169.082      -1227129.344
10 0 59709  85560.000000  0      -3768310.285       5825526.860       -782502.540
10 0 59709  85620.000000  0      -3711979.271       5902992.592       -334564.423
10 0 59709  85680.000000  0      -3639481.015       5955085.418        114790.158
10 0 59709  85740.000000  0      -3551337.007       5981435.940        563658.520
10 0 59709  85800.000000  0      -3448138.136       5981788.600       1010138.415
10 0 59709  85860.000000  0      -3330541.254       5956003.585       1452336.321
10 0 59709  85920.000000  0      -3199265.381       5904058.106       1888375.758
10 0 59709  85980.000000  0      -3055087.619       5826047.059       2316405.483
10 0 59709  86040.000000  0      -2898838.812       5722183.122       2734607.524
10 0 59709  86100.000000  0      -2731398.975       5592796.296       3141205.043
10 0 59709  86160.000000  0      -2553692.536       5438332.938       3534470.020
10 0 59709  86220.000000  0      -2366683.352       5259354.210       3912730.741
10 0 59709  86280.000000  0      -2171369.590       5056533.955       4274379.003
10 0 59709  86340.000000  0      -1968778.493       4830656.077       4617877.003
99
